{"type":"FeatureCollection","features":[{"type":"Feature","properties":{"code":"091","name":"Helsinki","parent":"MK01"},"geometry":{"type":"Point","coordinates":[24.9886,60.2173]}},{"type":"Feature","properties":{"code":"049","name":"Espoo-Kauniainen","parent":"MK01"},"geometry":{"type":"Point","coordinates":[24.659,60.2409]}},{"type":"Feature","properties":{"code":"092","name":"Vantaa","parent":"MK01"},"geometry":{"type":"Point","coordinates":[24.8757,60.3108]}},{"type":"Feature","properties":{"code":"638","name":"Porvoo","parent":"MK01"},"geometry":{"type":"Point","coordinates":[25.695,60.4053]}},{"type":"Feature","properties":{"code":"106","name":"Hyvinkää","parent":"MK01"},"geometry":{"type":"Point","coordinates":[24.8499,60.6129]}},{"type":"Feature","properties":{"code":"186","name":"Järvenpää","parent":"MK01"},"geometry":{"type":"Point","coordinates":[25.1035,60.4869]}},{"type":"Feature","properties":{"code":"245","name":"Kerava","parent":"MK01"},"geometry":{"type":"Point","coordinates":[25.1195,60.4002]}},{"type":"Feature","properties":{"code":"853","name":"Turku","parent":"MK02"},"geometry":{"type":"Point","coordinates":[22.2904,60.4684]}},{"type":"Feature","properties":{"code":"609","name":"Pori","parent":"MK04"},"geometry":{"type":"Point","coordinates":[22.3759,61.6229]}},{"type":"Feature","properties":{"code":"684","name":"Rauma","parent":"MK04"},"geometry":{"type":"Point","coordinates":[21.6949,61.0937]}},{"type":"Feature","properties":{"code":"109","name":"Hämeenlinna","parent":"MK05"},"geometry":{"type":"Point","coordinates":[24.8556,61.1436]}},{"type":"Feature","properties":{"code":"694","name":"Riihimäki","parent":"MK05"},"geometry":{"type":"Point","coordinates":[24.7504,60.7133]}},{"type":"Feature","properties":{"code":"837","name":"Tampere","parent":"MK06"},"geometry":{"type":"Point","coordinates":[23.9115,61.625]}},{"type":"Feature","properties":{"code":"398","name":"Lahti","parent":"MK07"},"geometry":{"type":"Point","coordinates":[25.8609,60.9862]}},{"type":"Feature","properties":{"code":"285","name":"Kotka","parent":"MK08"},"geometry":{"type":"Point","coordinates":[26.8944,60.5526]}},{"type":"Feature","properties":{"code":"286","name":"Kouvola","parent":"MK08"},"geometry":{"type":"Point","coordinates":[26.8186,60.942]}},{"type":"Feature","properties":{"code":"405","name":"Lappeenranta","parent":"MK09"},"geometry":{"type":"Point","coordinates":[28.2522,60.9849]}},{"type":"Feature","properties":{"code":"491","name":"Mikkeli","parent":"MK10"},"geometry":{"type":"Point","coordinates":[27.3548,61.6099]}},{"type":"Feature","properties":{"code":"297","name":"Kuopio","parent":"MK11"},"geometry":{"type":"Point","coordinates":[28.1568,63.181]}},{"type":"Feature","properties":{"code":"167","name":"Joensuu","parent":"MK12"},"geometry":{"type":"Point","coordinates":[30.4594,62.5355]}},{"type":"Feature","properties":{"code":"179","name":"Jyväskylä","parent":"MK13"},"geometry":{"type":"Point","coordinates":[25.6542,61.9696]}},{"type":"Feature","properties":{"code":"743","name":"Seinäjoki","parent":"MK14"},"geometry":{"type":"Point","coordinates":[22.9509,62.7587]}},{"type":"Feature","properties":{"code":"905","name":"Vaasa","parent":"MK15"},"geometry":{"type":"Point","coordinates":[21.7079,63.0845]}},{"type":"Feature","properties":{"code":"272","name":"Kokkola","parent":"MK16"},"geometry":{"type":"Point","coordinates":[23.6478,63.8204]}},{"type":"Feature","properties":{"code":"564","name":"Oulu","parent":"MK17"},"geometry":{"type":"Point","coordinates":[25.9631,65.1572]}},{"type":"Feature","properties":{"code":"205","name":"Kajaani","parent":"MK18"},"geometry":{"type":"Point","coordinates":[27.4252,64.1366]}},{"type":"Feature","properties":{"code":"698","name":"Rovaniemi","parent":"MK19"},"geometry":{"type":"Point","coordinates":[25.8387,66.6381]}}]}