{"type":"FeatureCollection","features":[{"type":"Feature","geometry":{"type":"Polygon","coordinates":[[[24.5773,60.5858],[24.549,60.5598],[24.4237,60.5525],[24.4649,60.5041],[24.2881,60.4755],[24.1713,60.4847],[24.134,60.3918],[24.204,60.3629],[24.2081,60.2987],[24.3057,60.2946],[24.3425,60.2462],[24.2928,60.1898],[24.3724,60.0628],[24.3615,60.0211],[24.4379,60.0443],[24.4856,59.9915],[24.6322,60.0893],[24.6268,60.1493],[24.5032,60.2129],[24.5242,60.3134],[24.6277,60.3592],[24.7493,60.3418],[24.8689,60.4013],[24.9546,60.3324],[25.056,60.3759],[25.1728,60.3566],[25.1168,60.3284],[25.1902,60.2857],[25.2716,60.2981],[25.2428,60.2514],[25.5145,60.2712],[25.3652,60.3755],[25.3634,60.4061],[25.2242,60.5016],[25.1693,60.5062],[25.0453,60.5769],[25.1125,60.6616],[25.0349,60.685],[24.8351,60.6663],[24.8364,60.7761],[24.7146,60.7965],[24.6706,60.7229],[24.6056,60.6928],[24.5773,60.5858]]]},"properties":{"code":"keh","name":"Kehyskunnat"}}]}